[{"OBJECT_NAME":"STARLINK-35378","OBJECT_ID":"2025-218D","EPOCH":"2026-03-09T14:28:38.342784","MEAN_MOTION":15.05646866,"ECCENTRICITY":0.0002203,"INCLINATION":97.6019,"RA_OF_ASC_NODE":292.8217,"ARG_OF_PERICENTER":78.1409,"MEAN_ANOMALY":282.0065,"EPHEMERIS_TYPE":0,"CLASSIFICATION_TYPE":"U","NORAD_CAT_ID":65794,"ELEMENT_SET_NO":999,"REV_AT_EPOCH":2495,"BSTAR":0.00021931,"MEAN_MOTION_DOT":3.105e-5,"MEAN_MOTION_DDOT":0},{"OBJECT_NAME":"OBJECT G","OBJECT_ID":"2025-292G","EPOCH":"2026-03-09T22:41:34.708704","MEAN_MOTION":15.05879657,"ECCENTRICITY":0.00150455,"INCLINATION":97.6425,"RA_OF_ASC_NODE":145.7524,"ARG_OF_PERICENTER":352.95,"MEAN_ANOMALY":7.1513,"EPHEMERIS_TYPE":0,"CLASSIFICATION_TYPE":"U","NORAD_CAT_ID":66999,"ELEMENT_SET_NO":999,"REV_AT_EPOCH":1351,"BSTAR":0.00047153864,"MEAN_MOTION_DOT":6.807e-5,"MEAN_MOTION_DDOT":0}]
